{
    "links": {
        "self": "http://www.neowsapp.com/rest/v1/neo/3564145?api_key=iIulBulltgU6a56xZRHN4H3l9WmuAYTsLGpBGhQ2"
    },
    "id": "3564145",
    "neo_reference_id": "3564145",
    "name": "(2011 HD24)",
    "designation": "2011 HD24",
    "nasa_jpl_url": "http://ssd.jpl.nasa.gov/sbdb.cgi?sstr=3564145",
    "absolute_magnitude_h": 25.5,
    "estimated_diameter": {
        "kilometers": {
            "estimated_diameter_min": 0.0211132445,
            "estimated_diameter_max": 0.0472106499
        },
        "meters": {
            "estimated_diameter_min": 21.113244479,
            "estimated_diameter_max": 47.2106498806
        },
        "miles": {
            "estimated_diameter_min": 0.0131191578,
            "estimated_diameter_max": 0.0293353287
        },
        "feet": {
            "estimated_diameter_min": 69.2691770164,
            "estimated_diameter_max": 154.8905885541
        }
    },
    "is_potentially_hazardous_asteroid": false,
    "close_approach_data": [
        {
            "close_approach_date": "2011-05-02",
            "close_approach_date_full": "2011-May-02 19:06",
            "epoch_date_close_approach": 1304363160000,
            "relative_velocity": {
                "kilometers_per_second": "26.4946648472",
                "kilometers_per_hour": "95380.7934498991",
                "miles_per_hour": "59265.9157966887"
            },
            "miss_distance": {
                "astronomical": "0.014125186",
                "lunar": "5.494697354",
                "kilometers": "2113097.73895382",
                "miles": "1313018.049529916"
            },
            "orbiting_body": "Earth"
        }
    ],
    "orbital_data": {
        "orbit_id": "6",
        "orbit_determination_date": "2017-04-06 08:53:36",
        "first_observation_date": "2011-04-28",
        "last_observation_date": "2011-05-02",
        "data_arc_in_days": 4,
        "observations_used": 18,
        "orbit_uncertainty": "9",
        "minimum_orbit_intersection": ".00630251",
        "jupiter_tisserand_invariant": "3.133",
        "epoch_osculation": "2455680.5",
        "eccentricity": ".8033660798020988",
        "semi_major_axis": "2.201117893915628",
        "inclination": "6.831748526252692",
        "ascending_node_longitude": "218.2923821019369",
        "orbital_period": "1192.788335605338",
        "perihelion_distance": ".4328144402983779",
        "perihelion_argument": "109.3404291917823",
        "aphelion_distance": "3.969421347532878",
        "perihelion_time": "2455729.489026762853",
        "mean_anomaly": "345.2144348597467",
        "mean_motion": ".3018138166293358",
        "equinox": "J2000",
        "orbit_class": {
            "orbit_class_type": "APO",
            "orbit_class_description": "Near-Earth asteroid orbits which cross the Earth’s orbit similar to that of 1862 Apollo",
            "orbit_class_range": "a (semi-major axis) > 1.0 AU; q (perihelion) < 1.017 AU"
        }
    },
    "is_sentry_object": false
}